[{"OBJECT_NAME":"ZHONGXING-5R","OBJECT_ID":"1984-114A","EPOCH":"2026-04-27T03:31:05.484000","MEAN_MOTION":0.9975905,"ECCENTRICITY":0.0007793,"INCLINATION":14.6754,"RA_OF_ASC_NODE":352.4091,"ARG_OF_PERICENTER":73.6356,"MEAN_ANOMALY":142.3988,"EPHEMERIS_TYPE":0,"CLASSIFICATION_TYPE":"U","NORAD_CAT_ID":15385,"ELEMENT_SET_NO":999,"REV_AT_EPOCH":12646,"BSTAR":0,"MEAN_MOTION_DOT":-2.86e-6,"MEAN_MOTION_DDOT":0},{"OBJECT_NAME":"ATLAS AGENA R/B(2)","OBJECT_ID":"1977-038C","EPOCH":"2026-04-26T17:18:55.910016","MEAN_MOTION":1.02336943,"ECCENTRICITY":0.14493868,"INCLINATION":6.3641,"RA_OF_ASC_NODE":330.3026,"ARG_OF_PERICENTER":179.5651,"MEAN_ANOMALY":180.3016,"EPHEMERIS_TYPE":0,"CLASSIFICATION_TYPE":"U","NORAD_CAT_ID":15422,"ELEMENT_SET_NO":999,"REV_AT_EPOCH":2571,"BSTAR":0,"MEAN_MOTION_DOT":-1.37e-6,"MEAN_MOTION_DDOT":0},{"OBJECT_NAME":"MOLNIYA 1-63","OBJECT_ID":"1984-124A","EPOCH":"2026-04-26T15:22:12.410688","MEAN_MOTION":2.00390275,"ECCENTRICITY":0.72894515,"INCLINATION":63.0629,"RA_OF_ASC_NODE":357.311,"ARG_OF_PERICENTER":257.6568,"MEAN_ANOMALY":15.5503,"EPHEMERIS_TYPE":0,"CLASSIFICATION_TYPE":"U","NORAD_CAT_ID":15429,"ELEMENT_SET_NO":999,"REV_AT_EPOCH":30302,"BSTAR":0,"MEAN_MOTION_DOT":-1.226e-5,"MEAN_MOTION_DDOT":0},{"OBJECT_NAME":"SL-6 R/B(2)","OBJECT_ID":"1984-124H","EPOCH":"2026-04-25T17:43:13.261152","MEAN_MOTION":1.96360404,"ECCENTRICITY":0.74695211,"INCLINATION":62.8997,"RA_OF_ASC_NODE":3.0576,"ARG_OF_PERICENTER":257.3547,"MEAN_ANOMALY":17.6284,"EPHEMERIS_TYPE":0,"CLASSIFICATION_TYPE":"U","NORAD_CAT_ID":15439,"ELEMENT_SET_NO":999,"REV_AT_EPOCH":25369,"BSTAR":0.00064109048,"MEAN_MOTION_DOT":1.084e-5,"MEAN_MOTION_DDOT":0},{"OBJECT_NAME":"GORIZONT 11","OBJECT_ID":"1985-007A","EPOCH":"2026-04-27T05:36:38.689632","MEAN_MOTION":1.00245282,"ECCENTRICITY":0.00025805,"INCLINATION":9.2511,"RA_OF_ASC_NODE":315.883,"ARG_OF_PERICENTER":286.2749,"MEAN_ANOMALY":33.2213,"EPHEMERIS_TYPE":0,"CLASSIFICATION_TYPE":"U","NORAD_CAT_ID":15484,"ELEMENT_SET_NO":999,"REV_AT_EPOCH":15211,"BSTAR":0,"MEAN_MOTION_DOT":-2.22e-6,"MEAN_MOTION_DDOT":0},{"OBJECT_NAME":"USA 8","OBJECT_ID":"1985-010B","EPOCH":"2026-04-26T23:44:38.893056","MEAN_MOTION":0.9981201,"ECCENTRICITY":0.01342942,"INCLINATION":12.7499,"RA_OF_ASC_NODE":314.0287,"ARG_OF_PERICENTER":53.9813,"MEAN_ANOMALY":138.1584,"EPHEMERIS_TYPE":0,"CLASSIFICATION_TYPE":"U","NORAD_CAT_ID":15543,"ELEMENT_SET_NO":999,"REV_AT_EPOCH":731,"BSTAR":0,"MEAN_MOTION_DOT":-3.55e-6,"MEAN_MOTION_DDOT":0},{"OBJECT_NAME":"IUS R/B(2)","OBJECT_ID":"1985-010D","EPOCH":"2026-04-26T23:17:43.752192","MEAN_MOTION":1.00818799,"ECCENTRICITY":0.00285693,"INCLINATION":12.8569,"RA_OF_ASC_NODE":312.8311,"ARG_OF_PERICENTER":303.9898,"MEAN_ANOMALY":55.6463,"EPHEMERIS_TYPE":0,"CLASSIFICATION_TYPE":"U","NORAD_CAT_ID":15545,"ELEMENT_SET_NO":999,"REV_AT_EPOCH":2640,"BSTAR":0,"MEAN_MOTION_DOT":-3.74e-6,"MEAN_MOTION_DDOT":0},{"OBJECT_NAME":"ARABSAT-1A","OBJECT_ID":"1985-015A","EPOCH":"2026-04-26T13:59:08.545920","MEAN_MOTION":1.00151328,"ECCENTRICITY":0.0028639,"INCLINATION":11.9015,"RA_OF_ASC_NODE":331.609,"ARG_OF_PERICENTER":237.9107,"MEAN_ANOMALY":303.2334,"EPHEMERIS_TYPE":0,"CLASSIFICATION_TYPE":"U","NORAD_CAT_ID":15560,"ELEMENT_SET_NO":999,"REV_AT_EPOCH":12549,"BSTAR":0,"MEAN_MOTION_DOT":-2.19e-6,"MEAN_MOTION_DDOT":0},{"OBJECT_NAME":"BRASILSAT 1","OBJECT_ID":"1985-015B","EPOCH":"2026-04-27T01:16:34.874688","MEAN_MOTION":0.99549376,"ECCENTRICITY":0.00051301,"INCLINATION":14.1423,"RA_OF_ASC_NODE":345.2763,"ARG_OF_PERICENTER":345.9457,"MEAN_ANOMALY":206.7485,"EPHEMERIS_TYPE":0,"CLASSIFICATION_TYPE":"U","NORAD_CAT_ID":15561,"ELEMENT_SET_NO":999,"REV_AT_EPOCH":4583,"BSTAR":0,"MEAN_MOTION_DOT":-2.75e-6,"MEAN_MOTION_DDOT":0},{"OBJECT_NAME":"COSMOS 1629","OBJECT_ID":"1985-016A","EPOCH":"2026-04-26T19:34:52.876128","MEAN_MOTION":1.00290359,"ECCENTRICITY":0.00059655,"INCLINATION":9.2231,"RA_OF_ASC_NODE":314.8384,"ARG_OF_PERICENTER":267.6195,"MEAN_ANOMALY":111.4637,"EPHEMERIS_TYPE":0,"CLASSIFICATION_TYPE":"U","NORAD_CAT_ID":15574,"ELEMENT_SET_NO":999,"REV_AT_EPOCH":14994,"BSTAR":0,"MEAN_MOTION_DOT":4.6e-7,"MEAN_MOTION_DDOT":0},{"OBJECT_NAME":"SL-12 R/B(2)","OBJECT_ID":"1985-016F","EPOCH":"2026-04-27T03:17:36.163968","MEAN_MOTION":0.99404808,"ECCENTRICITY":0.0024845,"INCLINATION":9.7361,"RA_OF_ASC_NODE":316.6322,"ARG_OF_PERICENTER":257.1169,"MEAN_ANOMALY":341.6012,"EPHEMERIS_TYPE":0,"CLASSIFICATION_TYPE":"U","NORAD_CAT_ID":15581,"ELEMENT_SET_NO":999,"REV_AT_EPOCH":12142,"BSTAR":0,"MEAN_MOTION_DOT":-2.11e-6,"MEAN_MOTION_DDOT":0},{"OBJECT_NAME":"NAHUEL I1 (ANIK C1)","OBJECT_ID":"1985-028B","EPOCH":"2026-04-27T05:33:20.620224","MEAN_MOTION":0.99658775,"ECCENTRICITY":0.00122357,"INCLINATION":14.7742,"RA_OF_ASC_NODE":352.5251,"ARG_OF_PERICENTER":145.6714,"MEAN_ANOMALY":59.7907,"EPHEMERIS_TYPE":0,"CLASSIFICATION_TYPE":"U","NORAD_CAT_ID":15642,"ELEMENT_SET_NO":999,"REV_AT_EPOCH":4588,"BSTAR":0,"MEAN_MOTION_DOT":-6.9e-7,"MEAN_MOTION_DDOT":0},{"OBJECT_NAME":"GSTAR 1","OBJECT_ID":"1985-035A","EPOCH":"2026-04-27T06:32:42.329760","MEAN_MOTION":1.00272529,"ECCENTRICITY":0.00037988,"INCLINATION":14.3414,"RA_OF_ASC_NODE":349.1076,"ARG_OF_PERICENTER":92.8894,"MEAN_ANOMALY":126.3402,"EPHEMERIS_TYPE":0,"CLASSIFICATION_TYPE":"U","NORAD_CAT_ID":15677,"ELEMENT_SET_NO":999,"REV_AT_EPOCH":12469,"BSTAR":0,"MEAN_MOTION_DOT":-1.25e-6,"MEAN_MOTION_DDOT":0},{"OBJECT_NAME":"TELECOM 1B","OBJECT_ID":"1985-035B","EPOCH":"2026-04-26T21:51:02.087712","MEAN_MOTION":1.00353968,"ECCENTRICITY":0.0003125,"INCLINATION":10.2217,"RA_OF_ASC_NODE":321.2514,"ARG_OF_PERICENTER":3.9103,"MEAN_ANOMALY":159.7581,"EPHEMERIS_TYPE":0,"CLASSIFICATION_TYPE":"U","NORAD_CAT_ID":15678,"ELEMENT_SET_NO":999,"REV_AT_EPOCH":13650,"BSTAR":0,"MEAN_MOTION_DOT":-3.24e-6,"MEAN_MOTION_DDOT":0},{"OBJECT_NAME":"SL-6 R/B(2)","OBJECT_ID":"1985-040D","EPOCH":"2026-04-25T22:24:15.816096","MEAN_MOTION":1.96959818,"ECCENTRICITY":0.74471448,"INCLINATION":62.2307,"RA_OF_ASC_NODE":296.6441,"ARG_OF_PERICENTER":257.3496,"MEAN_ANOMALY":17.8305,"EPHEMERIS_TYPE":0,"CLASSIFICATION_TYPE":"U","NORAD_CAT_ID":15741,"ELEMENT_SET_NO":999,"REV_AT_EPOCH":29397,"BSTAR":-0.00037813946,"MEAN_MOTION_DOT":-8.2e-6,"MEAN_MOTION_DDOT":0},{"OBJECT_NAME":"ARABSAT-1B","OBJECT_ID":"1985-048C","EPOCH":"2026-04-26T23:32:34.398816","MEAN_MOTION":1.00441291,"ECCENTRICITY":0.00166764,"INCLINATION":12.4341,"RA_OF_ASC_NODE":334.4768,"ARG_OF_PERICENTER":24.7408,"MEAN_ANOMALY":292.06,"EPHEMERIS_TYPE":0,"CLASSIFICATION_TYPE":"U","NORAD_CAT_ID":15825,"ELEMENT_SET_NO":999,"REV_AT_EPOCH":13491,"BSTAR":0,"MEAN_MOTION_DOT":-2.33e-6,"MEAN_MOTION_DDOT":0},{"OBJECT_NAME":"TELSTAR 303","OBJECT_ID":"1985-048D","EPOCH":"2026-04-27T00:22:40.046592","MEAN_MOTION":0.99875064,"ECCENTRICITY":0.00028734,"INCLINATION":14.2253,"RA_OF_ASC_NODE":346.662,"ARG_OF_PERICENTER":283.7974,"MEAN_ANOMALY":64.1333,"EPHEMERIS_TYPE":0,"CLASSIFICATION_TYPE":"U","NORAD_CAT_ID":15826,"ELEMENT_SET_NO":999,"REV_AT_EPOCH":4598,"BSTAR":0,"MEAN_MOTION_DOT":-3.47e-6,"MEAN_MOTION_DDOT":0},{"OBJECT_NAME":"COSMOS 1661","OBJECT_ID":"1985-049A","EPOCH":"2026-04-25T09:46:15.135168","MEAN_MOTION":2.00785659,"ECCENTRICITY":0.58247384,"INCLINATION":67.8283,"RA_OF_ASC_NODE":111.6189,"ARG_OF_PERICENTER":62.8566,"MEAN_ANOMALY":344.2354,"EPHEMERIS_TYPE":0,"CLASSIFICATION_TYPE":"U","NORAD_CAT_ID":15827,"ELEMENT_SET_NO":999,"REV_AT_EPOCH":29923,"BSTAR":0,"MEAN_MOTION_DOT":-5.52e-6,"MEAN_MOTION_DDOT":0},{"OBJECT_NAME":"INTELSAT 511","OBJECT_ID":"1985-055A","EPOCH":"2026-04-26T21:10:50.942784","MEAN_MOTION":1.0011729,"ECCENTRICITY":0.0013194,"INCLINATION":13.2418,"RA_OF_ASC_NODE":339.1199,"ARG_OF_PERICENTER":87.5242,"MEAN_ANOMALY":267.658,"EPHEMERIS_TYPE":0,"CLASSIFICATION_TYPE":"U","NORAD_CAT_ID":15873,"ELEMENT_SET_NO":999,"REV_AT_EPOCH":12399,"BSTAR":0,"MEAN_MOTION_DOT":-1.62e-6,"MEAN_MOTION_DDOT":0},{"OBJECT_NAME":"RADUGA 16","OBJECT_ID":"1985-070A","EPOCH":"2026-04-26T19:35:37.804992","MEAN_MOTION":1.00277434,"ECCENTRICITY":0.00021805,"INCLINATION":9.5048,"RA_OF_ASC_NODE":317.1544,"ARG_OF_PERICENTER":322.8112,"MEAN_ANOMALY":56.6264,"EPHEMERIS_TYPE":0,"CLASSIFICATION_TYPE":"U","NORAD_CAT_ID":15946,"ELEMENT_SET_NO":999,"REV_AT_EPOCH":12171,"BSTAR":0,"MEAN_MOTION_DOT":5.6e-7,"MEAN_MOTION_DDOT":0},{"OBJECT_NAME":"OPTUS A1 (AUSSAT 1)","OBJECT_ID":"1985-076B","EPOCH":"2026-04-27T04:48:34.968672","MEAN_MOTION":0.99758448,"ECCENTRICITY":0.00040331,"INCLINATION":13.3357,"RA_OF_ASC_NODE":339.218,"ARG_OF_PERICENTER":6.592,"MEAN_ANOMALY":172.6711,"EPHEMERIS_TYPE":0,"CLASSIFICATION_TYPE":"U","NORAD_CAT_ID":15993,"ELEMENT_SET_NO":999,"REV_AT_EPOCH":11908,"BSTAR":0,"MEAN_MOTION_DOT":5.9e-7,"MEAN_MOTION_DDOT":0},{"OBJECT_NAME":"ASC 1","OBJECT_ID":"1985-076C","EPOCH":"2026-04-27T05:59:08.421792","MEAN_MOTION":1.00315003,"ECCENTRICITY":0.00033526,"INCLINATION":13.8352,"RA_OF_ASC_NODE":343.7203,"ARG_OF_PERICENTER":69.4354,"MEAN_ANOMALY":143.6732,"EPHEMERIS_TYPE":0,"CLASSIFICATION_TYPE":"U","NORAD_CAT_ID":15994,"ELEMENT_SET_NO":999,"REV_AT_EPOCH":11746,"BSTAR":0,"MEAN_MOTION_DOT":-1.12e-6,"MEAN_MOTION_DDOT":0},{"OBJECT_NAME":"SL-6 R/B(2)","OBJECT_ID":"1985-088D","EPOCH":"2026-04-26T07:06:37.239840","MEAN_MOTION":2.04642061,"ECCENTRICITY":0.68118993,"INCLINATION":65.0573,"RA_OF_ASC_NODE":139.1225,"ARG_OF_PERICENTER":30.8491,"MEAN_ANOMALY":355.6705,"EPHEMERIS_TYPE":0,"CLASSIFICATION_TYPE":"U","NORAD_CAT_ID":16106,"ELEMENT_SET_NO":999,"REV_AT_EPOCH":30302,"BSTAR":0,"MEAN_MOTION_DOT":8.12e-6,"MEAN_MOTION_DDOT":0},{"OBJECT_NAME":"IUS R/B(2)","OBJECT_ID":"1985-092E","EPOCH":"2026-04-25T21:21:38.583360","MEAN_MOTION":1.01082737,"ECCENTRICITY":0.00565788,"INCLINATION":10.1435,"RA_OF_ASC_NODE":315.1144,"ARG_OF_PERICENTER":179.9142,"MEAN_ANOMALY":179.9753,"EPHEMERIS_TYPE":0,"CLASSIFICATION_TYPE":"U","NORAD_CAT_ID":16119,"ELEMENT_SET_NO":999,"REV_AT_EPOCH":2552,"BSTAR":0,"MEAN_MOTION_DOT":-1.58e-6,"MEAN_MOTION_DDOT":0}]
